[{"OBJECT_NAME":"STARLINK-34556","OBJECT_ID":"2025-144K","EPOCH":"2026-03-09T14:32:12.916320","MEAN_MOTION":15.30186212,"ECCENTRICITY":0.0001042,"INCLINATION":53.1582,"RA_OF_ASC_NODE":178.9709,"ARG_OF_PERICENTER":74.0214,"MEAN_ANOMALY":286.0901,"EPHEMERIS_TYPE":0,"CLASSIFICATION_TYPE":"U","NORAD_CAT_ID":64733,"ELEMENT_SET_NO":999,"REV_AT_EPOCH":3973,"BSTAR":0.0012696,"MEAN_MOTION_DOT":0.00037417,"MEAN_MOTION_DDOT":0},{"OBJECT_NAME":"KUIPER-00177","OBJECT_ID":"2026-030C","EPOCH":"2026-03-09T22:40:13.687104","MEAN_MOTION":15.35467467,"ECCENTRICITY":0.00021592,"INCLINATION":51.8837,"RA_OF_ASC_NODE":217.7875,"ARG_OF_PERICENTER":172.5497,"MEAN_ANOMALY":187.5522,"EPHEMERIS_TYPE":0,"CLASSIFICATION_TYPE":"U","NORAD_CAT_ID":67766,"ELEMENT_SET_NO":999,"REV_AT_EPOCH":513,"BSTAR":-0.015747205,"MEAN_MOTION_DOT":-0.00515419,"MEAN_MOTION_DDOT":0}]
